STARLINK-2022           
1 47643U 21012Z   24117.50718968  .00024407  00000+0  16521-2 0  9992
2 47643  53.0539 234.0485 0001344  84.7594 275.3548 15.06392455176925
